OBJECT_NAME,OBJECT_ID,EPOCH,MEAN_MOTION,ECCENTRICITY,INCLINATION,RA_OF_ASC_NODE,ARG_OF_PERICENTER,MEAN_ANOMALY,EPHEMERIS_TYPE,CLASSIFICATION_TYPE,NORAD_CAT_ID,ELEMENT_SET_NO,REV_AT_EPOCH,BSTAR,MEAN_MOTION_DOT,MEAN_MOTION_DDOT
KUZGTU 1 (RS47S),2023-091AV,2026-06-16T13:49:48.523584,15.29851403,.00123144,97.5065,232.0499,99.9128,260.3503,0,U,57217,999,16428,.35198368E-3,.10123E-3,0
SONATE-2,2024-043Q,2026-06-16T08:49:49.215072,15.58665638,.00070231,97.5531,317.7130,198.4216,161.6786,0,U,59112,999,12776,.43679961E-3,.33556E-3,0
MESAT1,2024-125G,2026-06-16T14:15:33.899904,15.63143366,.00095101,97.2285,25.0630,205.9807,154.0976,0,U,60209,999,10947,.5137291E-3,.47003E-3,0
OOV-CUBE (TUBSAT-30),2024-128F,2026-06-16T12:33:21.071520,15.02772018,.00446722,61.9942,227.8889,133.5765,226.9049,0,U,60240,999,10601,.12947885E-3,.156E-4,0
COLIBRI-S (RS67S),2024-199M,2026-06-16T14:37:18.539040,15.47705412,.0006253,97.2992,41.4583,281.7230,78.3319,0,U,61746,999,13732,.34303733E-3,.17681E-3,0
HORS 3 (RS81S),2024-199U,2026-06-16T13:47:31.084512,15.54936609,.00037414,97.2974,43.4035,282.2076,77.8759,0,U,61753,999,13746,.46095609E-3,.30811E-3,0
HORS 4 (RS82S),2024-199V,2026-06-16T14:25:48.805248,15.59635975,.00030743,97.2920,44.6283,262.2197,97.8711,0,U,61754,999,13755,.48874037E-3,.38956E-3,0
SIT-2086,2024-199AF,2026-06-16T14:47:53.919456,15.53052761,.00045191,97.2931,43.9247,253.3820,106.6938,0,U,61764,999,13434,.50148174E-3,.31319E-3,0
HYPERVIEW 1G (RS66S),2024-199AP,2026-06-16T14:50:02.318496,15.75708804,.00036677,97.2865,47.3086,220.8381,139.2610,0,U,61772,999,13458,.74238731E-3,.114683E-2,0
ALTAIR (RS65S),2024-199AW,2026-06-16T14:11:17.500128,15.37015459,.00111635,97.3026,36.9461,313.6537,46.3781,0,U,61779,999,13702,.19314629E-3,.6926E-4,0
ASRTU-1 (AO-123),2024-199AY,2026-06-16T13:53:07.070784,15.35668270,.0012356,97.2996,36.2551,316.6643,43.3628,0,U,61781,999,13383,.17608137E-3,.604E-4,0
SAMSAT-IONOSPHERE (RS75S),2024-199BB,2026-06-16T14:37:59.267136,15.57581245,.00058526,97.2942,43.4836,279.3742,80.6852,0,U,61784,999,13747,.51234389E-3,.3782E-3,0
RTU MIREA 1 (RS51S),2024-199BC,2026-06-16T13:42:40.624992,15.61027502,.00055156,97.2931,44.2729,271.3431,88.7195,0,U,61785,999,13437,.56948062E-3,.47957E-3,0
TEVEL2-4,2025-052D,2026-06-16T06:27:48.809088,15.34584651,.0004838,97.3909,63.6594,105.2183,254.9595,0,U,63213,999,6997,.45918E-3,.15325E-3,0
TEVEL2-5,2025-052E,2026-06-16T05:23:16.693728,15.34410559,.0004772,97.3905,63.5630,106.2124,253.9644,0,U,63214,999,6996,.4474E-3,.14846E-3,0
TEVEL2-6,2025-052F,2026-06-16T10:22:43.985856,15.34380894,.00046824,97.3911,63.7554,106.8652,253.3105,0,U,63215,999,6999,.4508596E-3,.14948E-3,0
TEVEL2-1,2025-052H,2026-06-16T06:22:19.541280,15.33842232,.0004726,97.3881,63.2139,115.4258,244.7474,0,U,63217,999,6995,.44072E-3,.14362E-3,0
TEVEL2-3,2025-052J,2026-06-16T12:30:24.966720,15.33904258,.00047028,97.3885,63.4913,115.0626,245.1106,0,U,63218,999,6999,.43668949E-3,.14257E-3,0
TEVEL2-2,2025-052K,2026-06-16T06:22:47.099424,15.33851140,.0004697,97.3884,63.2168,115.9068,244.2659,0,U,63219,999,6995,.44459E-3,.14493E-3,0
TEVEL2-9,2025-052AD,2026-06-16T10:30:44.853696,15.31879353,.00077305,97.3945,62.7654,132.7672,227.4221,0,U,63237,999,6991,.44252136E-3,.13564E-3,0
TEVEL2-7,2025-052AE,2026-06-16T14:37:36.572448,15.31587942,.00078197,97.3946,62.8531,132.7553,227.4348,0,U,63238,999,6993,.41827065E-3,.12699E-3,0
TEVEL2-8,2025-052AF,2026-06-16T10:07:14.255328,15.31567276,.00078322,97.3945,62.6427,133.7072,226.4820,0,U,63239,999,6990,.41240838E-3,.12512E-3,0
INNOSAT 16 (RS92S7),2025-155C,2026-06-16T14:36:11.253312,15.25451415,.00104753,97.4565,134.7381,177.3424,182.7872,0,U,64878,999,8058,.18437765E-3,.4596E-4,0
GEOSCAN 6 (RS92S6),2025-155D,2026-06-16T14:13:56.247168,15.30142164,.00082812,97.4558,136.1426,164.2443,195.9057,0,U,64879,999,8067,.29694122E-3,.8593E-4,0
GEOSCAN 1 (RS92S1),2025-155E,2026-06-16T14:17:47.768064,15.30736346,.00082248,97.4554,136.2927,163.9425,196.2078,0,U,64880,999,8068,.30188001E-3,.89E-4,0
239ALFEROV (RS61S),2025-155F,2026-06-16T13:35:17.971872,15.32925430,.00079582,97.4554,136.8224,160.9353,199.2188,0,U,64881,999,8071,.35442851E-3,.11207E-3,0
GEOSCAN 2 (RS92S2),2025-155Q,2026-06-16T14:08:51.182592,15.31007736,.00080593,97.4553,136.4387,151.2175,208.9512,0,U,64890,999,8069,.30821078E-3,.9166E-4,0
GEOSCAN 5 (RS92S5),2025-155R,2026-06-16T13:19:40.813536,15.33242551,.00066595,97.4547,136.9488,164.4676,195.6772,0,U,64891,999,8072,.35078609E-3,.11199E-3,0
GEOSCAN 4 (RS92S4),2025-155S,2026-06-16T14:30:58.744512,15.33397834,.00067387,97.4550,137.0469,164.0959,196.0496,0,U,64892,999,8073,.37295303E-3,.11972E-3,0
GEOSCAN 3 (RS92S3),2025-155T,2026-06-16T14:33:08.919936,15.35378656,.00066818,97.4539,137.4765,162.2223,197.9255,0,U,64893,999,8076,.43510145E-3,.14892E-3,0
