KUZGTU 1 (RS47S)        
1 57217U 23091AV  26167.57625606  .00010123  00000+0  35198-3 0  9991
2 57217  97.5065 232.0499 0012314  99.9128 260.3503 15.29851403164282
SONATE-2                
1 59112U 24043Q   26167.36793073  .00033556  00000+0  43680-3 0  9996
2 59112  97.5531 317.7130 0007023 198.4216 161.6786 15.58665638127766
MESAT1                  
1 60209U 24125G   26167.59414236  .00047003  00000+0  51373-3 0  9992
2 60209  97.2285  25.0630 0009510 205.9807 154.0976 15.63143366109475
OOV-CUBE (TUBSAT-30)    
1 60240U 24128F   26167.52316055  .00001560  00000+0  12948-3 0  9996
2 60240  61.9942 227.8889 0044672 133.5765 226.9049 15.02772018106015
COLIBRI-S (RS67S)       
1 61746U 24199M   26167.60924235  .00017681  00000+0  34304-3 0  9991
2 61746  97.2992  41.4583 0006253 281.7230  78.3319 15.47705412137321
HORS 3 (RS81S)          
1 61753U 24199U   26167.57466533  .00030811  00000+0  46096-3 0  9998
2 61753  97.2974  43.4035 0003741 282.2076  77.8759 15.54936609137465
HORS 4 (RS82S)          
1 61754U 24199V   26167.60125932  .00038956  00000+0  48874-3 0  9992
2 61754  97.2920  44.6283 0003074 262.2197  97.8711 15.59635975137553
SIT-2086                
1 61764U 24199AF  26167.61659629  .00031319  00000+0  50148-3 0  9992
2 61764  97.2931  43.9247 0004519 253.3820 106.6938 15.53052761134341
HYPERVIEW 1G (RS66S)    
1 61772U 24199AP  26167.61808239  .00114683  00000+0  74239-3 0  9997
2 61772  97.2865  47.3086 0003667 220.8381 139.2610 15.75708804134584
ALTAIR (RS65S)          
1 61779U 24199AW  26167.59117477  .00006926  00000+0  19315-3 0  9992
2 61779  97.3026  36.9461 0011163 313.6537  46.3781 15.37015459137020
ASRTU-1 (AO-123)        
1 61781U 24199AY  26167.57855406  .00006040  00000+0  17608-3 0  9994
2 61781  97.2996  36.2551 0012356 316.6643  43.3628 15.35668270133832
SAMSAT-IONOSPHERE (RS7*)
1 61784U 24199BB  26167.60971374  .00037820  00000+0  51234-3 0  9997
2 61784  97.2942  43.4836 0005852 279.3742  80.6852 15.57581245137477
RTU MIREA 1 (RS51S)     
1 61785U 24199BC  26167.57130353  .00047957  00000+0  56948-3 0  9997
2 61785  97.2931  44.2729 0005515 271.3431  88.7195 15.61027502134370
TEVEL2-4                
1 63213U 25052D   26167.26931492  .00015325  00000+0  45918-3 0  9992
2 63213  97.3909  63.6594 0004838 105.2183 254.9595 15.34584651 69972
TEVEL2-5                
1 63214U 25052E   26167.22449877  .00014846  00000+0  44740-3 0  9999
2 63214  97.3905  63.5630 0004772 106.2124 253.9644 15.34410559 69960
TEVEL2-6                
1 63215U 25052F   26167.43245354  .00014948  00000+0  45086-3 0  9994
2 63215  97.3911  63.7554 0004682 106.8652 253.3105 15.34380894 69994
TEVEL2-1                
1 63217U 25052H   26167.26550395  .00014362  00000+0  44072-3 0  9995
2 63217  97.3881  63.2139 0004726 115.4258 244.7474 15.33842232 69950
TEVEL2-3                
1 63218U 25052J   26167.52112230  .00014257  00000+0  43669-3 0  9991
2 63218  97.3885  63.4913 0004702 115.0626 245.1106 15.33904258 69994
TEVEL2-2                
1 63219U 25052K   26167.26582291  .00014493  00000+0  44459-3 0  9991
2 63219  97.3884  63.2168 0004697 115.9068 244.2659 15.33851140 69956
TEVEL2-9                
1 63237U 25052AD  26167.43801914  .00013564  00000+0  44252-3 0  9995
2 63237  97.3945  62.7654 0007730 132.7672 227.4221 15.31879353 69915
TEVEL2-7                
1 63238U 25052AE  26167.60945107  .00012699  00000+0  41827-3 0  9991
2 63238  97.3946  62.8531 0007819 132.7553 227.4348 15.31587942 69930
TEVEL2-8                
1 63239U 25052AF  26167.42169277  .00012512  00000+0  41241-3 0  9992
2 63239  97.3945  62.6427 0007832 133.7072 226.4820 15.31567276 69903
INNOSAT 16 (RS92S7)     
1 64878U 25155C   26167.60846358  .00004596  00000+0  18438-3 0  9993
2 64878  97.4565 134.7381 0010475 177.3424 182.7872 15.25451415 80582
GEOSCAN 6 (RS92S6)      
1 64879U 25155D   26167.59301212  .00008593  00000+0  29694-3 0  9994
2 64879  97.4558 136.1426 0008281 164.2443 195.9057 15.30142164 80674
GEOSCAN 1 (RS92S1)      
1 64880U 25155E   26167.59569176  .00008900  00000+0  30188-3 0  9993
2 64880  97.4554 136.2927 0008224 163.9425 196.2078 15.30736346 80681
239ALFEROV (RS61S)      
1 64881U 25155F   26167.56618023  .00011207  00000+0  35443-3 0  9990
2 64881  97.4554 136.8224 0007958 160.9353 199.2188 15.32925430 80713
GEOSCAN 2 (RS92S2)      
1 64890U 25155Q   26167.58948128  .00009166  00000+0  30821-3 0  9990
2 64890  97.4553 136.4387 0008059 151.2175 208.9512 15.31007736 80691
GEOSCAN 5 (RS92S5)      
1 64891U 25155R   26167.55533349  .00011199  00000+0  35079-3 0  9992
2 64891  97.4547 136.9488 0006659 164.4676 195.6772 15.33242551 80720
GEOSCAN 4 (RS92S4)      
1 64892U 25155S   26167.60484658  .00011972  00000+0  37295-3 0  9998
2 64892  97.4550 137.0469 0006738 164.0959 196.0496 15.33397834 80738
GEOSCAN 3 (RS92S3)      
1 64893U 25155T   26167.60635324  .00014892  00000+0  43510-3 0  9998
2 64893  97.4539 137.4765 0006681 162.2223 197.9255 15.35378656 80769
